STARLINK-2746           
1 48676U 21044AQ  26068.54045242 -.00000497  00000+0 -14477-4 0  9998
2 48676  53.0564 112.2892 0001529  98.1515 261.9647 15.06413344263824
CHUANGXIN 16A (CX-16A)  
1 53586U 22102A   26068.83297444  .00003128  00000+0  20134-3 0  9993
2 53586  28.9941 256.1289 0005063  43.7318 316.3682 15.05552649194538
