[{"OBJECT_NAME":"STARLINK-2746","OBJECT_ID":"2021-044AQ","EPOCH":"2026-03-09T12:58:15.089088","MEAN_MOTION":15.06413344,"ECCENTRICITY":0.00015298,"INCLINATION":53.0564,"RA_OF_ASC_NODE":112.2892,"ARG_OF_PERICENTER":98.1515,"MEAN_ANOMALY":261.9647,"EPHEMERIS_TYPE":0,"CLASSIFICATION_TYPE":"U","NORAD_CAT_ID":48676,"ELEMENT_SET_NO":999,"REV_AT_EPOCH":26382,"BSTAR":-1.4476566e-5,"MEAN_MOTION_DOT":-4.97e-6,"MEAN_MOTION_DDOT":0},{"OBJECT_NAME":"CHUANGXIN 16A (CX-16A)","OBJECT_ID":"2022-102A","EPOCH":"2026-03-09T19:59:28.991616","MEAN_MOTION":15.05552649,"ECCENTRICITY":0.0005063,"INCLINATION":28.9941,"RA_OF_ASC_NODE":256.1289,"ARG_OF_PERICENTER":43.7318,"MEAN_ANOMALY":316.3682,"EPHEMERIS_TYPE":0,"CLASSIFICATION_TYPE":"U","NORAD_CAT_ID":53586,"ELEMENT_SET_NO":999,"REV_AT_EPOCH":19453,"BSTAR":0.00020134,"MEAN_MOTION_DOT":3.128e-5,"MEAN_MOTION_DDOT":0}]
